{
  "type": "FeatureCollection",
  "features": [
    {
      "type": "Feature",
      "properties": {
        "norad_id": 34619,
        "name": "COSMOS 2251 DEB",
        "group": "cosmos-2251-debris",
        "lat": 67.66927829007874,
        "lon": -51.790755097053406,
        "alt_km": 733.115136214974,
        "timestamp": "2025-12-27T02:10:16.583805+00:00",
        "meta_object_name": "COSMOS 2251 DEB",
        "meta_object_id": "1993-036WQ",
        "meta_epoch": "2025-12-26T17:29:13.246656",
        "meta_mean_motion": 14.64680569,
        "meta_eccentricity": 0.0094726,
        "meta_inclination": 74.0431,
        "meta_ra_of_asc_node": 173.057,
        "meta_arg_of_pericenter": 264.723,
        "meta_mean_anomaly": 94.3124,
        "meta_ephemeris_type": 0,
        "meta_classification_type": "U",
        "meta_norad_cat_id": 34619,
        "meta_element_set_no": 999,
        "meta_rev_at_epoch": 89503,
        "meta_bstar": 0.00026764,
        "meta_mean_motion_dot": 1.486e-05,
        "meta_mean_motion_ddot": 0,
        "tle_line1": "1 34619U 93036WQ  25360.72862554  .00001486  00000+0  26764-3 0  9995",
        "tle_line2": "2 34619  74.0431 173.0570 0094726 264.7230  94.3124 14.64680569895036"
      },
      "geometry": {
        "type": "Point",
        "coordinates": [
          -51.790755097053406,
          67.66927829007874
        ]
      }
    },
    {
      "type": "Feature",
      "properties": {
        "norad_id": 34620,
        "name": "COSMOS 2251 DEB",
        "group": "cosmos-2251-debris",
        "lat": -73.78399574931056,
        "lon": 92.14533558686577,
        "alt_km": 692.2105105495548,
        "timestamp": "2025-12-27T02:10:16.583815+00:00",
        "meta_object_name": "COSMOS 2251 DEB",
        "meta_object_id": "1993-036WR",
        "meta_epoch": "2025-12-26T15:00:09.946368",
        "meta_mean_motion": 14.49319824,
        "meta_eccentricity": 0.0079363,
        "meta_inclination": 74.0513,
        "meta_ra_of_asc_node": 193.5129,
        "meta_arg_of_pericenter": 226.8087,
        "meta_mean_anomaly": 132.6426,
        "meta_ephemeris_type": 0,
        "meta_classification_type": "U",
        "meta_norad_cat_id": 34620,
        "meta_element_set_no": 999,
        "meta_rev_at_epoch": 87028,
        "meta_bstar": 0.0024508,
        "meta_mean_motion_dot": 9.725e-05,
        "meta_mean_motion_ddot": 0,
        "tle_line1": "1 34620U 93036WR  25360.62511512  .00009725  00000+0  24508-2 0  9998",
        "tle_line2": "2 34620  74.0513 193.5129 0079363 226.8087 132.6426 14.49319824870282"
      },
      "geometry": {
        "type": "Point",
        "coordinates": [
          92.14533558686577,
          -73.78399574931056
        ]
      }
    },
    {
      "type": "Feature",
      "properties": {
        "norad_id": 34622,
        "name": "COSMOS 2251 DEB",
        "group": "cosmos-2251-debris",
        "lat": -54.48831725394881,
        "lon": -102.37529949128607,
        "alt_km": 784.4152500842811,
        "timestamp": "2025-12-27T02:10:16.583825+00:00",
        "meta_object_name": "COSMOS 2251 DEB",
        "meta_object_id": "1993-036WT",
        "meta_epoch": "2025-12-26T11:47:44.253024",
        "meta_mean_motion": 14.22098383,
        "meta_eccentricity": 0.0105003,
        "meta_inclination": 74.0424,
        "meta_ra_of_asc_node": 282.3374,
        "meta_arg_of_pericenter": 1.5352,
        "meta_mean_anomaly": 116.3755,
        "meta_ephemeris_type": 0,
        "meta_classification_type": "U",
        "meta_norad_cat_id": 34622,
        "meta_element_set_no": 999,
        "meta_rev_at_epoch": 86655,
        "meta_bstar": 0.00087348,
        "meta_mean_motion_dot": 2.02e-05,
        "meta_mean_motion_ddot": 0,
        "tle_line1": "1 34622U 93036WT  25360.49148441  .00002020  00000+0  87348-3 0  9995",
        "tle_line2": "2 34622  74.0424 282.3374 0105003   1.5352 116.3755 14.22098383866552"
      },
      "geometry": {
        "type": "Point",
        "coordinates": [
          -102.37529949128607,
          -54.48831725394881
        ]
      }
    },
    {
      "type": "Feature",
      "properties": {
        "norad_id": 34626,
        "name": "COSMOS 2251 DEB",
        "group": "cosmos-2251-debris",
        "lat": -18.73657568912925,
        "lon": 121.55711048287358,
        "alt_km": 677.3957459745843,
        "timestamp": "2025-12-27T02:10:16.583835+00:00",
        "meta_object_name": "COSMOS 2251 DEB",
        "meta_object_id": "1993-036WX",
        "meta_epoch": "2025-12-26T06:22:44.648256",
        "meta_mean_motion": 14.72364831,
        "meta_eccentricity": 0.0027261,
        "meta_inclination": 74.0484,
        "meta_ra_of_asc_node": 297.5927,
        "meta_arg_of_pericenter": 22.2177,
        "meta_mean_anomaly": 127.7803,
        "meta_ephemeris_type": 0,
        "meta_classification_type": "U",
        "meta_norad_cat_id": 34626,
        "meta_element_set_no": 999,
        "meta_rev_at_epoch": 89343,
        "meta_bstar": 0.0011281,
        "meta_mean_motion_dot": 7.158e-05,
        "meta_mean_motion_ddot": 0,
        "tle_line1": "1 34626U 93036WX  25360.26579454  .00007158  00000+0  11281-2 0  9995",
        "tle_line2": "2 34626  74.0484 297.5927 0027261  22.2177 127.7803 14.72364831893434"
      },
      "geometry": {
        "type": "Point",
        "coordinates": [
          121.55711048287358,
          -18.73657568912925
        ]
      }
    },
    {
      "type": "Feature",
      "properties": {
        "norad_id": 34634,
        "name": "COSMOS 2251 DEB",
        "group": "cosmos-2251-debris",
        "lat": -46.6901660516848,
        "lon": -154.5379728191668,
        "alt_km": 728.0839430420083,
        "timestamp": "2025-12-27T02:10:16.583845+00:00",
        "meta_object_name": "COSMOS 2251 DEB",
        "meta_object_id": "1993-036XF",
        "meta_epoch": "2025-12-26T02:17:44.132352",
        "meta_mean_motion": 14.55692956,
        "meta_eccentricity": 0.00436541,
        "meta_inclination": 74.0512,
        "meta_ra_of_asc_node": 9.6855,
        "meta_arg_of_pericenter": 112.9861,
        "meta_mean_anomaly": 304.4596,
        "meta_ephemeris_type": 0,
        "meta_classification_type": "U",
        "meta_norad_cat_id": 34634,
        "meta_element_set_no": 999,
        "meta_rev_at_epoch": 88976,
        "meta_bstar": 0.00029034444,
        "meta_mean_motion_dot": 1.256e-05,
        "meta_mean_motion_ddot": 0,
        "tle_line1": "1 34634U 93036XF  25360.09564968  .00001256  00000+0  29034-3 0  9998",
        "tle_line2": "2 34634  74.0512   9.6855 0043654 112.9861 304.4596 14.55692956889765"
      },
      "geometry": {
        "type": "Point",
        "coordinates": [
          -154.5379728191668,
          -46.6901660516848
        ]
      }
    },
    {
      "type": "Feature",
      "properties": {
        "norad_id": 34635,
        "name": "COSMOS 2251 DEB",
        "group": "cosmos-2251-debris",
        "lat": 23.275038740792475,
        "lon": 50.04866982680093,
        "alt_km": 662.6003092489227,
        "timestamp": "2025-12-27T02:10:16.583855+00:00",
        "meta_object_name": "COSMOS 2251 DEB",
        "meta_object_id": "1993-036XG",
        "meta_epoch": "2025-12-25T22:32:29.783904",
        "meta_mean_motion": 14.68422636,
        "meta_eccentricity": 0.002762,
        "meta_inclination": 74.0453,
        "meta_ra_of_asc_node": 45.2043,
        "meta_arg_of_pericenter": 109.1526,
        "meta_mean_anomaly": 312.222,
        "meta_ephemeris_type": 0,
        "meta_classification_type": "U",
        "meta_norad_cat_id": 34635,
        "meta_element_set_no": 999,
        "meta_rev_at_epoch": 73413,
        "meta_bstar": 0.00099638,
        "meta_mean_motion_dot": 5.772e-05,
        "meta_mean_motion_ddot": 0,
        "tle_line1": "1 34635U 93036XG  25359.93923361  .00005772  00000+0  99638-3 0  9990",
        "tle_line2": "2 34635  74.0453  45.2043 0027620 109.1526 312.2220 14.68422636734137"
      },
      "geometry": {
        "type": "Point",
        "coordinates": [
          50.04866982680093,
          23.275038740792475
        ]
      }
    },
    {
      "type": "Feature",
      "properties": {
        "norad_id": 34637,
        "name": "COSMOS 2251 DEB",
        "group": "cosmos-2251-debris",
        "lat": 26.93061231322656,
        "lon": -114.56679354594944,
        "alt_km": 657.3240616331086,
        "timestamp": "2025-12-27T02:10:16.583865+00:00",
        "meta_object_name": "COSMOS 2251 DEB",
        "meta_object_id": "1993-036XJ",
        "meta_epoch": "2025-12-26T16:18:56.376288",
        "meta_mean_motion": 14.60213095,
        "meta_eccentricity": 0.0048701,
        "meta_inclination": 74.0493,
        "meta_ra_of_asc_node": 74.5702,
        "meta_arg_of_pericenter": 141.2837,
        "meta_mean_anomaly": 12.5962,
        "meta_ephemeris_type": 0,
        "meta_classification_type": "U",
        "meta_norad_cat_id": 34637,
        "meta_element_set_no": 999,
        "meta_rev_at_epoch": 88730,
        "meta_bstar": 0.00084407,
        "meta_mean_motion_dot": 4.11e-05,
        "meta_mean_motion_ddot": 0,
        "tle_line1": "1 34637U 93036XJ  25360.67981917  .00004110  00000+0  84407-3 0  9999",
        "tle_line2": "2 34637  74.0493  74.5702 0048701 141.2837  12.5962 14.60213095887305"
      },
      "geometry": {
        "type": "Point",
        "coordinates": [
          -114.56679354594944,
          26.93061231322656
        ]
      }
    }
  ]
}